AEROCUBE 6A             
1 40045U 14033AM  26063.51594911  .00009302  00000+0  80553-3 0  9993
2 40045  97.7111 231.7293 0039262   6.9125 353.2630 14.96751947630951
AEROCUBE 6B             
1 40046U 14033AN  26063.68427425  .00010644  00000+0  88940-3 0  9996
2 40046  97.7113 231.4787 0037657 359.4038   0.7133 14.98143365631105
CANX-4                  
1 40055U 14034C   26063.50886398  .00001720  00000+0  22890-3 0  9993
2 40055  98.3285 294.8975 0012697 353.4453   6.6590 14.81047018629037
CANX-5                  
1 40056U 14034D   26063.57605542  .00001603  00000+0  21373-3 0  9996
2 40056  98.3287 295.0047 0012688 353.4130   6.6912 14.81063171619850
UKUBE-1                 
1 40074U 14037F   26063.52068777  .00015313  00000+0  90351-3 0  9992
2 40074  98.4226  55.9568 0002696 117.2804 242.8698 15.11654565632731
BRITE-PL2 (HEWELIUSZ)   
1 40119U 14049B   26063.71746169  .00003990  00000+0  37746-3 0  9991
2 40119  97.8983 175.0192 0015558  96.6588 263.6403 14.94150369625843
AEROCUBE 5C             
1 40965U 15058B   26063.74798218  .00006018  00000+0  53228-3 0  9993
2 40965  64.7665 227.3370 0130982 104.4576 257.1112 14.90803455350088
AEROCUBE 7              
1 40966U 15058C   26063.49918096  .00008689  00000+0  70061-3 0  9994
2 40966  64.7621 212.5003 0120950 103.6626 257.7989 14.94827005350305
FOX-1A (AO-85)          
1 40967U 15058D   26063.76096391  .00005565  00000+0  50222-3 0  9997
2 40967  64.7737 243.3435 0129144  97.8982 263.6811 14.90304252 98004
SINOD-D 1               
1 40968U 15058E   26062.88698986  .00008169  00000+0  66247-3 0  9995
2 40968  64.7742 228.4401 0117530  95.6175 265.8355 14.94968554100910
SNAP-3 ALICE            
1 40970U 15058G   26063.71499876  .00075229  00000+0  16456-2 0  9995
2 40970  64.7555 100.0944 0037507  70.6818 289.8370 15.42955360100686
LMRST-SAT               
1 40971U 15058H   26063.62305166  .00005585  00000+0  50625-3 0  9999
2 40971  64.7744 239.9158 0131284  99.9113 261.6847 14.89935467 97975
SNAP-3 EDDIE            
1 40972U 15058J   26063.77973697  .00074776  00000+0  15793-2 0  9990
2 40972  64.7479  91.2975 0038626  75.6998 284.8425 15.43943029102829
PROPCUBE 3              
1 40973U 15058K   26063.50904516  .00007880  00000+0  65598-3 0  9997
2 40973  64.7680 219.3940 0123842 101.7502 259.7536 14.93463826 99168
BISONSAT                
1 40974U 15058L   26063.66989767  .00017054  00000+0  88172-3 0  9993
2 40974  64.7605 150.9263 0079538  93.0668 267.9560 15.13644296 99783
SNAP-3 JIMI             
1 40975U 15058M   26063.76821173  .00010116  00000+0  71138-3 0  9997
2 40975  64.7662 189.8413 0105819  98.5750 262.7374 15.01046890 98541
PROPCUBE 1 (FLORA)      
1 40976U 15058N   26063.54975205  .00004822  00000+0  45597-3 0  9997
2 40976  64.7730 259.3814 0130435 102.2084 259.3670 14.88587720100687
