[{"OBJECT_NAME":"AEROCUBE 6A","OBJECT_ID":"2014-033AM","EPOCH":"2026-03-04T12:22:58.003104","MEAN_MOTION":14.96751947,"ECCENTRICITY":0.0039262,"INCLINATION":97.7111,"RA_OF_ASC_NODE":231.7293,"ARG_OF_PERICENTER":6.9125,"MEAN_ANOMALY":353.263,"EPHEMERIS_TYPE":0,"CLASSIFICATION_TYPE":"U","NORAD_CAT_ID":40045,"ELEMENT_SET_NO":999,"REV_AT_EPOCH":63095,"BSTAR":0.00080553,"MEAN_MOTION_DOT":9.302e-5,"MEAN_MOTION_DDOT":0},{"OBJECT_NAME":"AEROCUBE 6B","OBJECT_ID":"2014-033AN","EPOCH":"2026-03-04T16:25:21.295200","MEAN_MOTION":14.98143365,"ECCENTRICITY":0.0037657,"INCLINATION":97.7113,"RA_OF_ASC_NODE":231.4787,"ARG_OF_PERICENTER":359.4038,"MEAN_ANOMALY":0.7133,"EPHEMERIS_TYPE":0,"CLASSIFICATION_TYPE":"U","NORAD_CAT_ID":40046,"ELEMENT_SET_NO":999,"REV_AT_EPOCH":63110,"BSTAR":0.0008894,"MEAN_MOTION_DOT":0.00010644,"MEAN_MOTION_DDOT":0},{"OBJECT_NAME":"CANX-4","OBJECT_ID":"2014-034C","EPOCH":"2026-03-04T12:12:45.847872","MEAN_MOTION":14.81047018,"ECCENTRICITY":0.00126972,"INCLINATION":98.3285,"RA_OF_ASC_NODE":294.8975,"ARG_OF_PERICENTER":353.4453,"MEAN_ANOMALY":6.659,"EPHEMERIS_TYPE":0,"CLASSIFICATION_TYPE":"U","NORAD_CAT_ID":40055,"ELEMENT_SET_NO":999,"REV_AT_EPOCH":62903,"BSTAR":0.00022889835,"MEAN_MOTION_DOT":1.72e-5,"MEAN_MOTION_DDOT":0},{"OBJECT_NAME":"CANX-5","OBJECT_ID":"2014-034D","EPOCH":"2026-03-04T13:49:31.188288","MEAN_MOTION":14.81063171,"ECCENTRICITY":0.0012688,"INCLINATION":98.3287,"RA_OF_ASC_NODE":295.0047,"ARG_OF_PERICENTER":353.413,"MEAN_ANOMALY":6.6912,"EPHEMERIS_TYPE":0,"CLASSIFICATION_TYPE":"U","NORAD_CAT_ID":40056,"ELEMENT_SET_NO":999,"REV_AT_EPOCH":61985,"BSTAR":0.00021373,"MEAN_MOTION_DOT":1.603e-5,"MEAN_MOTION_DDOT":0},{"OBJECT_NAME":"UKUBE-1","OBJECT_ID":"2014-037F","EPOCH":"2026-03-04T12:29:47.423328","MEAN_MOTION":15.11654565,"ECCENTRICITY":0.0002696,"INCLINATION":98.4226,"RA_OF_ASC_NODE":55.9568,"ARG_OF_PERICENTER":117.2804,"MEAN_ANOMALY":242.8698,"EPHEMERIS_TYPE":0,"CLASSIFICATION_TYPE":"U","NORAD_CAT_ID":40074,"ELEMENT_SET_NO":999,"REV_AT_EPOCH":63273,"BSTAR":0.00090351,"MEAN_MOTION_DOT":0.00015313,"MEAN_MOTION_DDOT":0},{"OBJECT_NAME":"BRITE-PL2 (HEWELIUSZ)","OBJECT_ID":"2014-049B","EPOCH":"2026-03-04T17:13:08.690016","MEAN_MOTION":14.94150369,"ECCENTRICITY":0.0015558,"INCLINATION":97.8983,"RA_OF_ASC_NODE":175.0192,"ARG_OF_PERICENTER":96.6588,"MEAN_ANOMALY":263.6403,"EPHEMERIS_TYPE":0,"CLASSIFICATION_TYPE":"U","NORAD_CAT_ID":40119,"ELEMENT_SET_NO":999,"REV_AT_EPOCH":62584,"BSTAR":0.00037746,"MEAN_MOTION_DOT":3.99e-5,"MEAN_MOTION_DDOT":0},{"OBJECT_NAME":"AEROCUBE 5C","OBJECT_ID":"2015-058B","EPOCH":"2026-03-04T17:57:05.660352","MEAN_MOTION":14.90803455,"ECCENTRICITY":0.0130982,"INCLINATION":64.7665,"RA_OF_ASC_NODE":227.337,"ARG_OF_PERICENTER":104.4576,"MEAN_ANOMALY":257.1112,"EPHEMERIS_TYPE":0,"CLASSIFICATION_TYPE":"U","NORAD_CAT_ID":40965,"ELEMENT_SET_NO":999,"REV_AT_EPOCH":35008,"BSTAR":0.00053228,"MEAN_MOTION_DOT":6.018e-5,"MEAN_MOTION_DDOT":0},{"OBJECT_NAME":"AEROCUBE 7","OBJECT_ID":"2015-058C","EPOCH":"2026-03-04T11:58:49.234944","MEAN_MOTION":14.94827005,"ECCENTRICITY":0.01209503,"INCLINATION":64.7621,"RA_OF_ASC_NODE":212.5003,"ARG_OF_PERICENTER":103.6626,"MEAN_ANOMALY":257.7989,"EPHEMERIS_TYPE":0,"CLASSIFICATION_TYPE":"U","NORAD_CAT_ID":40966,"ELEMENT_SET_NO":999,"REV_AT_EPOCH":35030,"BSTAR":0.00070061479,"MEAN_MOTION_DOT":8.689e-5,"MEAN_MOTION_DDOT":0},{"OBJECT_NAME":"FOX-1A (AO-85)","OBJECT_ID":"2015-058D","EPOCH":"2026-03-04T18:15:47.281824","MEAN_MOTION":14.90304252,"ECCENTRICITY":0.0129144,"INCLINATION":64.7737,"RA_OF_ASC_NODE":243.3435,"ARG_OF_PERICENTER":97.8982,"MEAN_ANOMALY":263.6811,"EPHEMERIS_TYPE":0,"CLASSIFICATION_TYPE":"U","NORAD_CAT_ID":40967,"ELEMENT_SET_NO":999,"REV_AT_EPOCH":9800,"BSTAR":0.00050222,"MEAN_MOTION_DOT":5.565e-5,"MEAN_MOTION_DDOT":0},{"OBJECT_NAME":"SINOD-D 1","OBJECT_ID":"2015-058E","EPOCH":"2026-03-03T21:17:15.923904","MEAN_MOTION":14.94968554,"ECCENTRICITY":0.011753,"INCLINATION":64.7742,"RA_OF_ASC_NODE":228.4401,"ARG_OF_PERICENTER":95.6175,"MEAN_ANOMALY":265.8355,"EPHEMERIS_TYPE":0,"CLASSIFICATION_TYPE":"U","NORAD_CAT_ID":40968,"ELEMENT_SET_NO":999,"REV_AT_EPOCH":10091,"BSTAR":0.00066247,"MEAN_MOTION_DOT":8.169e-5,"MEAN_MOTION_DDOT":0},{"OBJECT_NAME":"SNAP-3 ALICE","OBJECT_ID":"2015-058G","EPOCH":"2026-03-04T17:09:35.892864","MEAN_MOTION":15.4295536,"ECCENTRICITY":0.0037507,"INCLINATION":64.7555,"RA_OF_ASC_NODE":100.0944,"ARG_OF_PERICENTER":70.6818,"MEAN_ANOMALY":289.837,"EPHEMERIS_TYPE":0,"CLASSIFICATION_TYPE":"U","NORAD_CAT_ID":40970,"ELEMENT_SET_NO":999,"REV_AT_EPOCH":10068,"BSTAR":0.0016456,"MEAN_MOTION_DOT":0.00075229,"MEAN_MOTION_DDOT":0},{"OBJECT_NAME":"LMRST-SAT","OBJECT_ID":"2015-058H","EPOCH":"2026-03-04T14:57:11.663424","MEAN_MOTION":14.89935467,"ECCENTRICITY":0.0131284,"INCLINATION":64.7744,"RA_OF_ASC_NODE":239.9158,"ARG_OF_PERICENTER":99.9113,"MEAN_ANOMALY":261.6847,"EPHEMERIS_TYPE":0,"CLASSIFICATION_TYPE":"U","NORAD_CAT_ID":40971,"ELEMENT_SET_NO":999,"REV_AT_EPOCH":9797,"BSTAR":0.00050625,"MEAN_MOTION_DOT":5.585e-5,"MEAN_MOTION_DDOT":0},{"OBJECT_NAME":"SNAP-3 EDDIE","OBJECT_ID":"2015-058J","EPOCH":"2026-03-04T18:42:49.274208","MEAN_MOTION":15.43943029,"ECCENTRICITY":0.0038626,"INCLINATION":64.7479,"RA_OF_ASC_NODE":91.2975,"ARG_OF_PERICENTER":75.6998,"MEAN_ANOMALY":284.8425,"EPHEMERIS_TYPE":0,"CLASSIFICATION_TYPE":"U","NORAD_CAT_ID":40972,"ELEMENT_SET_NO":999,"REV_AT_EPOCH":10282,"BSTAR":0.0015793,"MEAN_MOTION_DOT":0.00074776,"MEAN_MOTION_DDOT":0},{"OBJECT_NAME":"PROPCUBE 3","OBJECT_ID":"2015-058K","EPOCH":"2026-03-04T12:13:01.501824","MEAN_MOTION":14.93463826,"ECCENTRICITY":0.01238426,"INCLINATION":64.768,"RA_OF_ASC_NODE":219.394,"ARG_OF_PERICENTER":101.7502,"MEAN_ANOMALY":259.7536,"EPHEMERIS_TYPE":0,"CLASSIFICATION_TYPE":"U","NORAD_CAT_ID":40973,"ELEMENT_SET_NO":999,"REV_AT_EPOCH":9916,"BSTAR":0.00065597897,"MEAN_MOTION_DOT":7.88e-5,"MEAN_MOTION_DDOT":0},{"OBJECT_NAME":"BISONSAT","OBJECT_ID":"2015-058L","EPOCH":"2026-03-04T16:04:39.158688","MEAN_MOTION":15.13644296,"ECCENTRICITY":0.0079538,"INCLINATION":64.7605,"RA_OF_ASC_NODE":150.9263,"ARG_OF_PERICENTER":93.0668,"MEAN_ANOMALY":267.956,"EPHEMERIS_TYPE":0,"CLASSIFICATION_TYPE":"U","NORAD_CAT_ID":40974,"ELEMENT_SET_NO":999,"REV_AT_EPOCH":9978,"BSTAR":0.00088172,"MEAN_MOTION_DOT":0.00017054,"MEAN_MOTION_DDOT":0},{"OBJECT_NAME":"SNAP-3 JIMI","OBJECT_ID":"2015-058M","EPOCH":"2026-03-04T18:26:13.493472","MEAN_MOTION":15.0104689,"ECCENTRICITY":0.0105819,"INCLINATION":64.7662,"RA_OF_ASC_NODE":189.8413,"ARG_OF_PERICENTER":98.575,"MEAN_ANOMALY":262.7374,"EPHEMERIS_TYPE":0,"CLASSIFICATION_TYPE":"U","NORAD_CAT_ID":40975,"ELEMENT_SET_NO":999,"REV_AT_EPOCH":9854,"BSTAR":0.00071138,"MEAN_MOTION_DOT":0.00010116,"MEAN_MOTION_DDOT":0},{"OBJECT_NAME":"PROPCUBE 1 (FLORA)","OBJECT_ID":"2015-058N","EPOCH":"2026-03-04T13:11:38.577120","MEAN_MOTION":14.8858772,"ECCENTRICITY":0.0130435,"INCLINATION":64.773,"RA_OF_ASC_NODE":259.3814,"ARG_OF_PERICENTER":102.2084,"MEAN_ANOMALY":259.367,"EPHEMERIS_TYPE":0,"CLASSIFICATION_TYPE":"U","NORAD_CAT_ID":40976,"ELEMENT_SET_NO":999,"REV_AT_EPOCH":10068,"BSTAR":0.00045597,"MEAN_MOTION_DOT":4.822e-5,"MEAN_MOTION_DDOT":0}]
